{
  "norad_id": 43676,
  "name": "KHALIFASAT",
  "history": [
    {
      "epoch": "2026-03-28T22:35:33.441792Z",
      "apogee_km": 566.7895023719702,
      "perigee_km": 560.5101008669617,
      "latitude_deg": -3.2968965961991896e-06,
      "longitude_deg": 101.94687767789371,
      "height_km": 563.973913923639,
      "semi_major_axis_km": 6941.786801619466,
      "eccentricity": 0.00045229,
      "inclination_deg": 98.0848,
      "raan_deg": 267.1908,
      "arg_perigee_deg": 30.1101,
      "mean_anomaly_deg": 330.0381,
      "mean_motion_rev_day": 15.01052406
    },
    {
      "epoch": "2026-03-29T04:59:31.655328Z",
      "apogee_km": 566.7417441173347,
      "perigee_km": 560.5843674678454,
      "latitude_deg": 3.200548857910866e-05,
      "longitude_deg": 5.968298092801281,
      "height_km": 564.0251116422166,
      "semi_major_axis_km": 6941.80005579259,
      "eccentricity": 0.0004435,
      "inclination_deg": 98.0849,
      "raan_deg": 267.4676,
      "arg_perigee_deg": 29.5498,
      "mean_anomaly_deg": 330.5975,
      "mean_motion_rev_day": 15.01048107
    },
    {
      "epoch": "2026-03-30T04:59:24.338976Z",
      "apogee_km": 566.663340710038,
      "perigee_km": 560.625379283113,
      "latitude_deg": -8.581621699468345e-05,
      "longitude_deg": 6.053638667694113,
      "height_km": 563.9554077580094,
      "semi_major_axis_km": 6941.781359996576,
      "eccentricity": 0.0004349,
      "inclination_deg": 98.0843,
      "raan_deg": 268.508,
      "arg_perigee_deg": 25.28,
      "mean_anomaly_deg": 334.8634,
      "mean_motion_rev_day": 15.01054171
    },
    {
      "epoch": "2026-03-30T06:35:23.828640Z",
      "apogee_km": 566.6591269241371,
      "perigee_km": 560.6247773166378,
      "latitude_deg": -3.078088924181127e-05,
      "longitude_deg": -17.94064647310261,
      "height_km": 563.9505904525638,
      "semi_major_axis_km": 6941.778952120388,
      "eccentricity": 0.00043464,
      "inclination_deg": 98.0842,
      "raan_deg": 268.5773,
      "arg_perigee_deg": 25.0988,
      "mean_anomaly_deg": 335.0445,
      "mean_motion_rev_day": 15.01054952
    },
    {
      "epoch": "2026-03-30T14:35:21.182784Z",
      "apogee_km": 566.5484524722951,
      "perigee_km": 560.6984920870955,
      "latitude_deg": 1.8849582585108107e-05,
      "longitude_deg": -137.91144684055286,
      "height_km": 563.990815433116,
      "semi_major_axis_km": 6941.760472279695,
      "eccentricity": 0.00042136,
      "inclination_deg": 98.0839,
      "raan_deg": 268.924,
      "arg_perigee_deg": 23.9163,
      "mean_anomaly_deg": 336.2255,
      "mean_motion_rev_day": 15.01060946
    }
  ]
}